[{"OBJECT_NAME":"JILIN-1 GAOFEN 03D47","OBJECT_ID":"2022-167L","EPOCH":"2026-03-09T22:56:46.924224","MEAN_MOTION":15.31686941,"ECCENTRICITY":0.00089304,"INCLINATION":97.6835,"RA_OF_ASC_NODE":234.6581,"ARG_OF_PERICENTER":110.4031,"MEAN_ANOMALY":249.8169,"EPHEMERIS_TYPE":0,"CLASSIFICATION_TYPE":"U","NORAD_CAT_ID":54692,"ELEMENT_SET_NO":999,"REV_AT_EPOCH":18014,"BSTAR":0.00047294748,"MEAN_MOTION_DOT":0.00014417,"MEAN_MOTION_DDOT":0},{"OBJECT_NAME":"STARLINK-31436","OBJECT_ID":"2024-036X","EPOCH":"2026-03-09T08:04:20.560512","MEAN_MOTION":15.30185538,"ECCENTRICITY":0.00012387,"INCLINATION":53.1604,"RA_OF_ASC_NODE":80.1548,"ARG_OF_PERICENTER":101.6969,"MEAN_ANOMALY":258.4171,"EPHEMERIS_TYPE":0,"CLASSIFICATION_TYPE":"U","NORAD_CAT_ID":59019,"ELEMENT_SET_NO":999,"REV_AT_EPOCH":11526,"BSTAR":-6.632871e-6,"MEAN_MOTION_DOT":-5.55e-6,"MEAN_MOTION_DDOT":0}]
